{
  "type": "FeatureCollection",
  "features": [
    {
      "type": "Feature",
      "properties": {
        "norad_id": 34846,
        "name": "COSMOS 2251 DEB",
        "group": "cosmos-2251-debris",
        "lat": 14.1601415860243,
        "lon": 89.95678939216023,
        "alt_km": 753.979878837079,
        "timestamp": "2025-12-06T03:35:02.281352+00:00",
        "meta_object_name": "COSMOS 2251 DEB",
        "meta_object_id": "1993-036ABQ",
        "meta_epoch": "2025-12-04T20:57:31.751424",
        "meta_mean_motion": 14.47131587,
        "meta_eccentricity": 0.0025931,
        "meta_inclination": 74.0314,
        "meta_ra_of_asc_node": 276.4845,
        "meta_arg_of_pericenter": 343.8697,
        "meta_mean_anomaly": 16.1633,
        "meta_ephemeris_type": 0,
        "meta_classification_type": "U",
        "meta_norad_cat_id": 34846,
        "meta_element_set_no": 999,
        "meta_rev_at_epoch": 87290,
        "meta_bstar": 0.0020632,
        "meta_mean_motion_dot": 7.537e-05,
        "meta_mean_motion_ddot": 0,
        "tle_line1": "1 34846U 93036ABQ 25338.87328416  .00007537  00000+0  20632-2 0  9992",
        "tle_line2": "2 34846  74.0314 276.4845 0025931 343.8697  16.1633 14.47131587872909"
      },
      "geometry": {
        "type": "Point",
        "coordinates": [
          89.95678939216023,
          14.1601415860243
        ]
      }
    },
    {
      "type": "Feature",
      "properties": {
        "norad_id": 34852,
        "name": "COSMOS 2251 DEB",
        "group": "cosmos-2251-debris",
        "lat": 62.41991880307683,
        "lon": 61.85381348893293,
        "alt_km": 762.526737093277,
        "timestamp": "2025-12-06T03:35:02.281362+00:00",
        "meta_object_name": "COSMOS 2251 DEB",
        "meta_object_id": "1993-036ABW",
        "meta_epoch": "2025-12-05T05:20:30.139584",
        "meta_mean_motion": 14.36995637,
        "meta_eccentricity": 0.00158725,
        "meta_inclination": 74.0327,
        "meta_ra_of_asc_node": 276.7964,
        "meta_arg_of_pericenter": 21.9307,
        "meta_mean_anomaly": 338.2522,
        "meta_ephemeris_type": 0,
        "meta_classification_type": "U",
        "meta_norad_cat_id": 34852,
        "meta_element_set_no": 999,
        "meta_rev_at_epoch": 87426,
        "meta_bstar": 0.00023390813,
        "meta_mean_motion_dot": 6.68e-06,
        "meta_mean_motion_ddot": 0,
        "tle_line1": "1 34852U 93036ABW 25339.22257106  .00000668  00000+0  23391-3 0  9990",
        "tle_line2": "2 34852  74.0327 276.7964 0015872  21.9307 338.2522 14.36995637874268"
      },
      "geometry": {
        "type": "Point",
        "coordinates": [
          61.85381348893293,
          62.41991880307683
        ]
      }
    },
    {
      "type": "Feature",
      "properties": {
        "norad_id": 34854,
        "name": "COSMOS 2251 DEB",
        "group": "cosmos-2251-debris",
        "lat": 21.465369159488645,
        "lon": -14.965951461581732,
        "alt_km": 667.5049852463135,
        "timestamp": "2025-12-06T03:35:02.281373+00:00",
        "meta_object_name": "COSMOS 2251 DEB",
        "meta_object_id": "1993-036ABY",
        "meta_epoch": "2025-12-05T05:43:38.858016",
        "meta_mean_motion": 14.76519505,
        "meta_eccentricity": 0.00662093,
        "meta_inclination": 74.028,
        "meta_ra_of_asc_node": 173.2846,
        "meta_arg_of_pericenter": 286.4636,
        "meta_mean_anomaly": 72.9269,
        "meta_ephemeris_type": 0,
        "meta_classification_type": "U",
        "meta_norad_cat_id": 34854,
        "meta_element_set_no": 999,
        "meta_rev_at_epoch": 71771,
        "meta_bstar": 0.001163348,
        "meta_mean_motion_dot": 8.381e-05,
        "meta_mean_motion_ddot": 0,
        "tle_line1": "1 34854U 93036ABY 25339.23864419  .00008381  00000+0  11633-2 0  9999",
        "tle_line2": "2 34854  74.0280 173.2846 0066209 286.4636  72.9269 14.76519505717717"
      },
      "geometry": {
        "type": "Point",
        "coordinates": [
          -14.965951461581732,
          21.465369159488645
        ]
      }
    },
    {
      "type": "Feature",
      "properties": {
        "norad_id": 34856,
        "name": "COSMOS 2251 DEB",
        "group": "cosmos-2251-debris",
        "lat": -70.89886531879888,
        "lon": -25.62996271433821,
        "alt_km": 535.0866337232137,
        "timestamp": "2025-12-06T03:35:02.281383+00:00",
        "meta_object_name": "COSMOS 2251 DEB",
        "meta_object_id": "1993-036ACA",
        "meta_epoch": "2025-12-03T19:10:13.988064",
        "meta_mean_motion": 15.05251833,
        "meta_eccentricity": 0.00346135,
        "meta_inclination": 73.9972,
        "meta_ra_of_asc_node": 103.2267,
        "meta_arg_of_pericenter": 241.227,
        "meta_mean_anomaly": 245.1465,
        "meta_ephemeris_type": 0,
        "meta_classification_type": "U",
        "meta_norad_cat_id": 34856,
        "meta_element_set_no": 999,
        "meta_rev_at_epoch": 88977,
        "meta_bstar": 0.0030177118,
        "meta_mean_motion_dot": 0.00043929,
        "meta_mean_motion_ddot": 0,
        "tle_line1": "1 34856U 93036ACA 25337.79877301  .00043929  00000+0  30177-2 0  9995",
        "tle_line2": "2 34856  73.9972 103.2267 0034613 241.2270 245.1465 15.05251833889770"
      },
      "geometry": {
        "type": "Point",
        "coordinates": [
          -25.62996271433821,
          -70.89886531879888
        ]
      }
    },
    {
      "type": "Feature",
      "properties": {
        "norad_id": 34857,
        "name": "COSMOS 2251 DEB",
        "group": "cosmos-2251-debris",
        "lat": -53.9434163143908,
        "lon": 96.21252698252933,
        "alt_km": 678.7789698487477,
        "timestamp": "2025-12-06T03:35:02.281394+00:00",
        "meta_object_name": "COSMOS 2251 DEB",
        "meta_object_id": "1993-036ACB",
        "meta_epoch": "2025-12-03T13:53:25.818720",
        "meta_mean_motion": 14.58726098,
        "meta_eccentricity": 0.00662035,
        "meta_inclination": 74.0144,
        "meta_ra_of_asc_node": 124.2999,
        "meta_arg_of_pericenter": 250.3429,
        "meta_mean_anomaly": 238.0974,
        "meta_ephemeris_type": 0,
        "meta_classification_type": "U",
        "meta_norad_cat_id": 34857,
        "meta_element_set_no": 999,
        "meta_rev_at_epoch": 87767,
        "meta_bstar": 0.0017193547,
        "meta_mean_motion_dot": 8.251e-05,
        "meta_mean_motion_ddot": 0,
        "tle_line1": "1 34857U 93036ACB 25337.57877105  .00008251  00000+0  17194-2 0  9997",
        "tle_line2": "2 34857  74.0144 124.2999 0066203 250.3429 238.0974 14.58726098877675"
      },
      "geometry": {
        "type": "Point",
        "coordinates": [
          96.21252698252933,
          -53.9434163143908
        ]
      }
    },
    {
      "type": "Feature",
      "properties": {
        "norad_id": 34859,
        "name": "COSMOS 2251 DEB",
        "group": "cosmos-2251-debris",
        "lat": 26.760876537452628,
        "lon": 1.6569785927711065,
        "alt_km": 525.5857294333755,
        "timestamp": "2025-12-06T03:35:02.281404+00:00",
        "meta_object_name": "COSMOS 2251 DEB",
        "meta_object_id": "1993-036ACD",
        "meta_epoch": "2025-12-03T12:38:16.176768",
        "meta_mean_motion": 15.12289472,
        "meta_eccentricity": 0.00045468,
        "meta_inclination": 74.0347,
        "meta_ra_of_asc_node": 358.7891,
        "meta_arg_of_pericenter": 317.5487,
        "meta_mean_anomaly": 195.1552,
        "meta_ephemeris_type": 0,
        "meta_classification_type": "U",
        "meta_norad_cat_id": 34859,
        "meta_element_set_no": 999,
        "meta_rev_at_epoch": 88219,
        "meta_bstar": 0.0058122279,
        "meta_mean_motion_dot": 0.0010206,
        "meta_mean_motion_ddot": 0,
        "tle_line1": "1 34859U 93036ACD 25337.52657612  .00102060  00000+0  58122-2 0  9992",
        "tle_line2": "2 34859  74.0347 358.7891 0004546 317.5487 195.1552 15.12289472882198"
      },
      "geometry": {
        "type": "Point",
        "coordinates": [
          1.6569785927711065,
          26.760876537452628
        ]
      }
    },
    {
      "type": "Feature",
      "properties": {
        "norad_id": 34861,
        "name": "COSMOS 2251 DEB",
        "group": "cosmos-2251-debris",
        "lat": -30.999729112753826,
        "lon": -105.77543905769417,
        "alt_km": 569.5991452376311,
        "timestamp": "2025-12-06T03:35:02.281415+00:00",
        "meta_object_name": "COSMOS 2251 DEB",
        "meta_object_id": "1993-036ACF",
        "meta_epoch": "2025-12-04T06:01:04.857024",
        "meta_mean_motion": 15.01729033,
        "meta_eccentricity": 0.0006124,
        "meta_inclination": 74.019,
        "meta_ra_of_asc_node": 68.1812,
        "meta_arg_of_pericenter": 77.103,
        "meta_mean_anomaly": 314.3474,
        "meta_ephemeris_type": 0,
        "meta_classification_type": "U",
        "meta_norad_cat_id": 34861,
        "meta_element_set_no": 999,
        "meta_rev_at_epoch": 87965,
        "meta_bstar": 0.0059785,
        "meta_mean_motion_dot": 0.00078683,
        "meta_mean_motion_ddot": 0,
        "tle_line1": "1 34861U 93036ACF 25338.25075066  .00078683  00000+0  59785-2 0  9992",
        "tle_line2": "2 34861  74.0190  68.1812 0006124  77.1030 314.3474 15.01729033879654"
      },
      "geometry": {
        "type": "Point",
        "coordinates": [
          -105.77543905769417,
          -30.999729112753826
        ]
      }
    }
  ]
}